[{"OBJECT_NAME":"STARLINK-5652","OBJECT_ID":"2023-013D","EPOCH":"2026-03-09T00:21:02.163168","MEAN_MOTION":15.02535196,"ECCENTRICITY":0.00010965,"INCLINATION":43.0043,"RA_OF_ASC_NODE":304.268,"ARG_OF_PERICENTER":272.4279,"MEAN_ANOMALY":87.6438,"EPHEMERIS_TYPE":0,"CLASSIFICATION_TYPE":"U","NORAD_CAT_ID":55334,"ELEMENT_SET_NO":999,"REV_AT_EPOCH":17160,"BSTAR":1.0299495e-5,"MEAN_MOTION_DOT":-6.4e-7,"MEAN_MOTION_DDOT":0},{"OBJECT_NAME":"TIROS 5","OBJECT_ID":"1962-025A","EPOCH":"2026-03-09T18:19:03.462528","MEAN_MOTION":14.60548226,"ECCENTRICITY":0.0188246,"INCLINATION":58.0885,"RA_OF_ASC_NODE":225.1954,"ARG_OF_PERICENTER":128.0206,"MEAN_ANOMALY":233.7985,"EPHEMERIS_TYPE":0,"CLASSIFICATION_TYPE":"U","NORAD_CAT_ID":309,"ELEMENT_SET_NO":999,"REV_AT_EPOCH":36730,"BSTAR":0.00024813109,"MEAN_MOTION_DOT":1.341e-5,"MEAN_MOTION_DDOT":0}]
